IONOSFERA-M 4           
1 64877U 25155B   26156.73691921  .00000061  00000+0  47372-4 0  9991
2 64877  98.6019 118.8481 0000664 112.4468 247.6780 14.21486612 44771
MICROCARB               
1 64899U 25156A   26156.46045742  .00000569  00000+0  97702-4 0  9995
2 64899  97.9831 233.8069 0015251 313.0436  46.9493 14.72313194 46246
CO3D 3                  
1 64900U 25156B   26156.66864255  .00004973  00000+0  23278-3 0  9997
2 64900  97.4322 235.5280 0001024 143.9361 216.1944 15.20192850 47783
CO3D 4                  
1 64901U 25156C   26156.66880628  .00004932  00000+0  23072-3 0  9997
2 64901  97.4326 235.5273 0000916  36.7026 323.4272 15.20213871 47789
CO3D 2                  
1 64902U 25156D   26156.63544645  .00006434  00000+0  30014-3 0  9994
2 64902  97.4325 235.3937 0001403 118.1902 241.9475 15.20197620 47775
CO3D 1                  
1 64903U 25156E   26156.63560220  .00005313  00000+0  24831-3 0  9997
2 64903  97.4325 235.3939 0001151 120.3894 239.7455 15.20210331 47771
PRSC-S1                 
1 65055U 25164A   26156.66156213  .00005348  00000+0  36858-3 0  9991
2 65055  41.1315 352.7193 0007637 276.7100  83.2845 15.06347443 46696
SENTINEL-6B             
1 66514U 25264A   26156.37444090 -.00000058  00000+0  14251-4 0  9992
2 66514  66.0384 159.7138 0008059 269.2968  90.7124 12.80929621 25650
CAS500-3                
1 66655U 25274F   26156.51689848  .00001407  00000+0  15804-3 0  9999
2 66655  97.7445  84.8336 0006078 141.4201 218.7451 14.88292321 28415
CSG-3                   
1 67304U 26001A   26156.45218503  .00000357  00000+0  51352-4 0  9991
2 67304  97.8886 340.2242 0001319  93.7203 266.4161 14.82160716 22728
PRSC-E03                
1 68835U 26092A   26156.45726145  .00002183  00000+0  15175-3 0  9998
2 68835  37.9993 158.8474 0005309 285.3990  74.6185 15.06611665  6185
CAS500-2                
1 69013U 26100AK  26156.43819376  .00006175  00000+0  28564-3 0  9995
2 69013  97.4079  54.4969 0011589  71.1430 289.1061 15.20442796  5028
