OBJECT_NAME,OBJECT_ID,EPOCH,MEAN_MOTION,ECCENTRICITY,INCLINATION,RA_OF_ASC_NODE,ARG_OF_PERICENTER,MEAN_ANOMALY,EPHEMERIS_TYPE,CLASSIFICATION_TYPE,NORAD_CAT_ID,ELEMENT_SET_NO,REV_AT_EPOCH,BSTAR,MEAN_MOTION_DOT,MEAN_MOTION_DDOT
IONOSFERA-M 4,2025-155B,2026-06-05T17:41:09.819744,14.21486612,.0000664,98.6019,118.8481,112.4468,247.6780,0,U,64877,999,4477,.47372E-4,.61E-6,0
MICROCARB,2025-156A,2026-06-05T11:03:03.521088,14.72313194,.0015251,97.9831,233.8069,313.0436,46.9493,0,U,64899,999,4624,.97702E-4,.569E-5,0
CO3D 3,2025-156B,2026-06-05T16:02:50.716320,15.20192850,.0001024,97.4322,235.5280,143.9361,216.1944,0,U,64900,999,4778,.23278E-3,.4973E-4,0
CO3D 4,2025-156C,2026-06-05T16:03:04.862592,15.20213871,.0000916,97.4326,235.5273,36.7026,323.4272,0,U,64901,999,4778,.23072E-3,.4932E-4,0
CO3D 2,2025-156D,2026-06-05T15:15:02.573280,15.20197620,.0001403,97.4325,235.3937,118.1902,241.9475,0,U,64902,999,4777,.30014E-3,.6434E-4,0
CO3D 1,2025-156E,2026-06-05T15:15:16.030080,15.20210331,.0001151,97.4325,235.3939,120.3894,239.7455,0,U,64903,999,4777,.24831E-3,.5313E-4,0
PRSC-S1,2025-164A,2026-06-05T15:52:38.968032,15.06347443,.0007637,41.1315,352.7193,276.7100,83.2845,0,U,65055,999,4669,.36858E-3,.5348E-4,0
SENTINEL-6B,2025-264A,2026-06-05T08:59:11.693760,12.80929621,.0008059,66.0384,159.7138,269.2968,90.7124,0,U,66514,999,2565,.14251E-4,-.58E-6,0
CAS500-3,2025-274F,2026-06-05T12:24:20.028672,14.88292321,.0006078,97.7445,84.8336,141.4201,218.7451,0,U,66655,999,2841,.15804E-3,.1407E-4,0
CSG-3,2026-001A,2026-06-05T10:51:08.786592,14.82160716,.0001319,97.8886,340.2242,93.7203,266.4161,0,U,67304,999,2272,.51352E-4,.357E-5,0
PRSC-E03,2026-092A,2026-06-05T10:58:27.389280,15.06611665,.0005309,37.9993,158.8474,285.3990,74.6185,0,U,68835,999,618,.15175E-3,.2183E-4,0
CAS500-2,2026-100AK,2026-06-05T10:30:59.940864,15.20442796,.0011589,97.4079,54.4969,71.1430,289.1061,0,U,69013,999,502,.28564E-3,.6175E-4,0
